[{"OBJECT_NAME":"STARLINK-3904","OBJECT_ID":"2022-049P","EPOCH":"2026-03-09T05:00:30.737376","MEAN_MOTION":15.08836543,"ECCENTRICITY":0.00012033,"INCLINATION":53.2173,"RA_OF_ASC_NODE":61.2803,"ARG_OF_PERICENTER":88.8475,"MEAN_ANOMALY":271.2655,"EPHEMERIS_TYPE":0,"CLASSIFICATION_TYPE":"U","NORAD_CAT_ID":52464,"ELEMENT_SET_NO":999,"REV_AT_EPOCH":21217,"BSTAR":7.757502e-6,"MEAN_MOTION_DOT":-1.64e-6,"MEAN_MOTION_DDOT":0},{"OBJECT_NAME":"CZ-6A DEB","OBJECT_ID":"2024-140DW","EPOCH":"2026-03-09T12:42:27.831456","MEAN_MOTION":14.74987574,"ECCENTRICITY":0.01550337,"INCLINATION":88.9082,"RA_OF_ASC_NODE":275.4322,"ARG_OF_PERICENTER":135.579,"MEAN_ANOMALY":225.799,"EPHEMERIS_TYPE":0,"CLASSIFICATION_TYPE":"U","NORAD_CAT_ID":60717,"ELEMENT_SET_NO":999,"REV_AT_EPOCH":8391,"BSTAR":0.0030954876,"MEAN_MOTION_DOT":0.00025382,"MEAN_MOTION_DDOT":0}]
